1 48642C 21044E   21334.52294492 -.00017950  00000+0 -12030-2 0  3349
2 48642  53.0532 285.4646 0001913  57.8974 337.8052 15.06406042    10
1 48642C 21044E   21334.79425968 -.00011223  00000+0 -75233-3 0  3344
2 48642  53.0533 284.2465 0001895  57.4064  10.4632 15.06391143    15
1 48642C 21044E   21335.17048353  .00008343  00000+0  55933-3 0  3359
2 48642  53.0533 282.5575 0001909  57.5177 251.7475 15.06368400    15
1 48642C 21044E   21335.49187263  .00008544  00000+0  57261-3 0  3357
2 48642  53.0534 281.1146 0001949  57.4215 195.6817 15.06377954    11
1 48642C 21044E   21335.81718188  .00009139  00000+0  61238-3 0  3359
2 48642  53.0535 279.6542 0001979  57.7677 160.4547 15.06385507    15
1 48642C 21044E   21336.16598428  .00012548  00000+0  84065-3 0  3363
2 48642  53.0537 278.0882 0002028  58.1658 252.6642 15.06388031    12
1 48642C 21044E   21336.48751808 -.00005953  00000+0 -39878-3 0  3367
2 48642  53.0539 276.6448 0002026  57.3607 198.1101 15.06409541    13
1 48642C 21044E   21336.81234236 -.00015973  00000+0 -10703-2 0  3363
2 48642  53.0542 275.1865 0002038  57.4640 160.5200 15.06411720    10
1 48642C 21044E   21337.19675718  .00011488  00000+0  76989-3 0  3374
2 48642  53.0544 273.4608 0002035  56.9782  86.8743 15.06377682    16
1 48642C 21044E   21337.44169110  .00008491  00000+0  56896-3 0  3371
2 48642  53.0545 272.3613 0002060  57.2590 335.5961 15.06385710    17
1 48642C 21044E   21337.80763478  .00005313  00000+0  35594-3 0  3370
2 48642  53.0546 270.7186 0002073  57.7995 160.6635 15.06393661    12
1 48642C 21044E   21338.15954144  .00009403  00000+0  62995-3 0  3381
2 48642  53.0547 269.1389 0002097  58.5804 269.3418 15.06392705    18
1 48642C 21044E   21338.43666756 -.00010037  00000+0 -67242-3 0  3388
2 48642  53.0546 267.8950 0002093  58.1904 333.4193 15.06412653    17
1 48642C 21044E   21338.80295505 -.00017764  00000+0 -11904-2 0  3386
2 48642  53.0546 266.2507 0002051  58.4157 160.6930 15.06409705    18
1 48642C 21044E   21339.17794267  .00008751  00000+0  58651-3 0  3392
2 48642  53.0544 264.5675 0002032  58.4075  35.4120 15.06376947    12
1 48642C 21044E   21339.43269963  .00005746  00000+0  38505-3 0  3398
2 48642  53.0542 263.4240 0002051  58.9305 337.1906 15.06384619    17
1 48642C 21044E   21339.79828910  .00001457  00000+0  97654-4 0  3396
2 48642  53.0540 261.7830 0002054  59.7902 160.0134 15.06392238    18
1 48642C 21044E   21340.10641545  .00006223  00000+0  41701-3 0  3409
2 48642  53.0537 260.3999 0002080  60.2817  31.4242 15.06387635    12
1 48642C 21044E   21340.42797116  .00004685  00000+0  31389-3 0  3401
2 48642  53.0534 258.9566 0002118  60.9559 335.5116 15.06393893    15
1 48642C 21044E   21340.79461740  .00000923  00000+0  61829-4 0  3406
2 48642  53.0532 257.3107 0002132  61.6177 164.2780 15.06400502    17
1 48642C 21044E   21341.17029725  .00008280  00000+0  55467-3 0  3417
2 48642  53.0529 255.6243 0002176  62.1417  42.2145 15.06394176    15
1 48642C 21044E   21341.32673308 -.00002639  00000+0 -17680-3 0  3415
2 48642  53.0528 254.9220 0002159  61.8413 171.3354 15.06405997    14
1 48642C 21044E   21341.81890532 -.00018643  00000+0 -12494-2 0  3418
2 48642  53.0527 252.7125 0002168  61.8116 321.9196 15.06407778    19
1 48642C 21044E   21342.14669727  .00008336  00000+0  55874-3 0  3422
2 48642  53.0526 251.2410 0002184  61.5883 300.7665 15.06375129    15
1 48642C 21044E   21342.46131433  .00003286  00000+0  22022-3 0  3423
2 48642  53.0526 249.8285 0002224  61.5192 207.9353 15.06383975    16
1 48642C 21044E   21342.83058565 -.00000818  00000+0 -54797-4 0  3423
2 48642  53.0527 248.1707 0002260  62.1124  51.0006 15.06390990    18
1 48642C 21044E   21343.17082259  .00009482  00000+0  63538-3 0  3435
2 48642  53.0528 246.6433 0002302  62.4082  96.8371 15.06382552    18
1 48642C 21044E   21343.52709532  .00003648  00000+0  24440-3 0  3431
2 48642  53.0530 245.0439 0002334  62.8441 229.5363 15.06391274    15
1 48642C 21044E   21343.81111531 -.00001603  00000+0 -10738-3 0  3435
2 48642  53.0531 243.7688 0002355  63.4115 330.0610 15.06399647    10
1 48642C 21044E   21344.16598610  .00003546  00000+0  23760-3 0  3447
2 48642  53.0540 242.1820 0002525  63.6365  95.3782 15.06390077    18
1 48642C 21044E   21344.49125048  .00001599  00000+0  10714-3 0  3445
2 48642  53.0533 240.7154 0002388  64.3470  59.5630 15.06398169    10
1 48642C 21044E   21344.81979263 -.00003639  00000+0 -24375-3 0  3444
2 48642  53.0533 239.2405 0002397  65.2651  41.3242 15.06406092    16
1 48642C 21044E   21345.16962294  .00007913  00000+0  53009-3 0  3453
2 48642  53.0533 237.6701 0002413  65.9846 138.8081 15.06396546    14
1 48642C 21044E   21345.48675999  .00001924  00000+0  12888-3 0  3457
2 48642  53.0534 236.2463 0002416  66.6374  58.9554 15.06404211    18
1 48642C 21044E   21345.85034035 -.00019523  00000+0 -13079-2 0  3456
2 48642  53.0533 234.6141 0002387  67.3183 231.0774 15.06421956    18
1 48642C 21044E   21346.16650513 -.00016016  00000+0 -10732-2 0  3464
2 48642  53.0532 233.1949 0002387  67.8267 146.1102 15.06408353    12
1 48642C 21044E   21346.53384712  .00001937  00000+0  12984-3 0  3466
2 48642  53.0531 231.5458 0002348  68.1999 338.9628 15.06381390    16
1 48642C 21044E   21346.81200262 -.00004203  00000+0 -28168-3 0  3466
2 48642  53.0530 230.2971 0002364  68.6785  47.7473 15.06388207    14
1 48642C 21044E   21347.14911997  .00007621  00000+0  51078-3 0  3479
2 48642  53.0529 228.7838 0002399  69.3443  76.2812 15.06378291    19
1 48642C 21044E   21347.50953833  .00002621  00000+0  17563-3 0  3470
2 48642  53.0529 227.1659 0002421  69.8630 231.3862 15.06384130    10
1 48642C 21044E   21347.84529466 -.00001594  00000+0 -10680-3 0  3471
2 48642  53.0529 225.6586 0002445  70.4028 252.6559 15.06389455    11
1 48642C 21044E   21348.15698368  .00008012  00000+0  53692-3 0  3485
2 48642  53.0527 224.2595 0002477  70.5079 143.7778 15.06382874    17
1 48642C 21044E   21348.52448074  .00003986  00000+0  26712-3 0  3481
2 48642  53.0528 222.6097 0002506  70.7005 337.6238 15.06388056    14
1 48642C 21044E   21348.85727982  .00000050  00000+0  33349-5 0  3480
2 48642  53.0529 221.1158 0002530  71.2467 342.8475 15.06393012    11
1 48642C 21044E   21349.15226170  .00008504  00000+0  56976-3 0  3499
2 48642  53.0529 219.7916 0002561  71.4579 143.2141 15.06388792    18
1 48642C 21044E   21349.45503300  .00003811  00000+0  25532-3 0  3495
2 48642  53.0530 218.4324 0002582  71.6308 345.8846 15.06394834    10
1 48642C 21044E   21349.85294558  .00001659  00000+0  11115-3 0  3491
2 48642  53.0531 216.6461 0002606  72.4163 344.1862 15.06400699    15
1 48642C 21044E   21350.14756751  .00009233  00000+0  61846-3 0  3507
2 48642  53.0530 215.3235 0002626  72.8364 142.3991 15.06398563    15
1 48642C 21044E   21350.48124750 -.00000017  00000+0 -11621-5 0  3503
2 48642  53.0531 213.8255 0002612  73.2277 152.5725 15.06408463    13
1 48642C 21044E   21350.84842618 -.00023710  00000+0 -15886-2 0  3502
2 48642  53.0530 212.1772 0002583  73.7828 344.3527 15.06421833    19
1 48642C 21044E   21351.14357472 -.00003148  00000+0 -21095-3 0  3519
2 48642  53.0529 210.8523 0002572  74.1353 145.5088 15.06394976    12
1 48642C 21044E   21351.49568299  .00004198  00000+0  28135-3 0  3514
2 48642  53.0528 209.2716 0002538  74.7364 255.4578 15.06385782    17
1 48642C 21044E   21351.84425632  .00000698  00000+0  46767-4 0  3519
2 48642  53.0526 207.7068 0002535  75.7533 345.8001 15.06389791    13
1 48642C 21044E   21352.15474504 -.00022427  00000+0 -15032-2 0  3522
2 48642  53.0529 206.3145 0002523  75.2989 230.9594 15.06406028    18
1 48642C 21044E   21352.50797571  .00002209  00000+0  14802-3 0  3522
2 48642  53.0522 204.7274 0002548  77.1275 345.7722 15.06391643    16
1 48642C 21044E   21352.84010674  .00000220  00000+0  14720-4 0  3522
2 48642  53.0524 203.2363 0002550  78.1248 346.9258 15.06393360    10
1 48642C 21044E   21353.14950736  .00004749  00000+0  31820-3 0  3538
2 48642  53.0528 201.8473 0002571  78.5473 225.3165 15.06392830    15
1 48642C 21044E   21353.46873324  .00002806  00000+0  18800-3 0  3535
2 48642  53.0534 200.4143 0002575  79.2549 156.7375 15.06394993    19
1 48642C 21044E   21353.83593962  .00001576  00000+0  10560-3 0  3531
2 48642  53.0535 198.7658 0002586  79.8984 348.5688 15.06396168    15
1 48642C 21044E   21354.14516427  .00005802  00000+0  38866-3 0  3543
2 48642  53.0533 197.3776 0002606  80.0360 226.2938 15.06398056    12
1 48642C 21044E   21354.50085787  .00004872  00000+0  32632-3 0  3544
2 48642  53.0534 195.7808 0002622  80.5594 355.7808 15.06402961    18
1 48642C 21044E   21354.86113596 -.00018149  00000+0 -12159-2 0  3548
2 48642  53.0534 194.1634 0002587  80.8542 150.3754 15.06417231    19
1 48642C 21044E   21355.14116836 -.00013955  00000+0 -93512-3 0  3554
2 48642  53.0535 192.9062 0002570  80.8845 229.8233 15.06406278    12
1 48642C 21044E   21355.49600782  .00004568  00000+0  30614-3 0  3552
2 48642  53.0537 191.3132 0002543  80.7998 355.2872 15.06381851    15
1 48642C 21044E   21355.82777419  .00004651  00000+0  31171-3 0  3553
2 48642  53.0539 189.8239 0002545  81.2828 354.9656 15.06381944    16
1 48642C 21044E   21356.15104984  .00004978  00000+0  33355-3 0  3560
2 48642  53.0540 188.3726 0002566  81.4557 308.8790 15.06386341    10
1 48642C 21044E   21356.51738582  .00002439  00000+0  16344-3 0  3566
2 48642  53.0543 186.7281 0002559  82.1577 135.9136 15.06391552    16
1 48642C 21044E   21356.86943818  .00005925  00000+0  39701-3 0  3569
2 48642  53.0545 185.1477 0002574  82.7271 245.5895 15.06388290    17
1 48642C 21044E   21357.14482874  .00003684  00000+0  24682-3 0  3574
2 48642  53.0546 183.9115 0002571  82.9997 299.5867 15.06394309    13
1 48642C 21044E   21357.45137168  .00003183  00000+0  21327-3 0  3578
2 48642  53.0548 182.5354 0002553  83.6577 162.2390 15.06396795    15
